[{"OBJECT_NAME":"STARLINK-31122","OBJECT_ID":"2024-011K","EPOCH":"2026-03-09T06:24:36.512928","MEAN_MOTION":15.30193529,"ECCENTRICITY":0.00010974,"INCLINATION":53.1617,"RA_OF_ASC_NODE":15.7701,"ARG_OF_PERICENTER":114.9832,"MEAN_ANOMALY":245.1283,"EPHEMERIS_TYPE":0,"CLASSIFICATION_TYPE":"U","NORAD_CAT_ID":58774,"ELEMENT_SET_NO":999,"REV_AT_EPOCH":12020,"BSTAR":2.7376629e-5,"MEAN_MOTION_DOT":4.52e-6,"MEAN_MOTION_DDOT":0},{"OBJECT_NAME":"GEOSCAN 5 (RS92S5)","OBJECT_ID":"2025-155R","EPOCH":"2026-03-09T22:01:07.273920","MEAN_MOTION":15.30265233,"ECCENTRICITY":0.00070849,"INCLINATION":97.4462,"RA_OF_ASC_NODE":37.7456,"ARG_OF_PERICENTER":154.5846,"MEAN_ANOMALY":205.5745,"EPHEMERIS_TYPE":0,"CLASSIFICATION_TYPE":"U","NORAD_CAT_ID":64891,"ELEMENT_SET_NO":999,"REV_AT_EPOCH":6562,"BSTAR":0.00068639307,"MEAN_MOTION_DOT":0.00020065,"MEAN_MOTION_DDOT":0}]
